OBJECT_NAME,OBJECT_ID,EPOCH,MEAN_MOTION,ECCENTRICITY,INCLINATION,RA_OF_ASC_NODE,ARG_OF_PERICENTER,MEAN_ANOMALY,EPHEMERIS_TYPE,CLASSIFICATION_TYPE,NORAD_CAT_ID,ELEMENT_SET_NO,REV_AT_EPOCH,BSTAR,MEAN_MOTION_DOT,MEAN_MOTION_DDOT
ONEWEB-0158,2021-025N,2026-07-11T19:26:12.601248,13.13464534,.00018649,87.8985,315.3196,103.4877,256.6460,0,U,48054,999,25686,.17331706E-3,.76E-6,0
ONEWEB-0157,2021-025P,2026-07-11T20:02:45.054816,13.13472044,.00022114,87.8979,315.3182,97.6047,262.5333,0,U,48055,999,25680,-.64167344E-3,-.222E-5,0
ONEWEB-0162,2021-025Q,2026-07-11T19:28:26.438304,13.13468817,.00020487,87.8989,315.3231,107.2978,252.8375,0,U,48056,999,25677,-.14289504E-3,-.39E-6,0
ONEWEB-0155,2021-025R,2026-07-11T19:38:24.270144,13.13472848,.00020443,87.8979,315.3193,95.7428,264.3934,0,U,48057,999,25691,-.63359877E-3,-.219E-5,0
ONEWEB-0149,2021-025S,2026-07-11T20:10:04.384992,13.13470216,.00019124,87.8982,315.3185,92.9829,267.1519,0,U,48058,999,25672,-.59221788E-3,-.204E-5,0
ONEWEB-0148,2021-025T,2026-07-11T19:16:26.645088,13.13469185,.00019912,87.8979,315.3315,93.0193,267.1164,0,U,48059,999,25684,.58979601E-3,.228E-5,0
ONEWEB-0160,2021-025U,2026-07-11T19:40:48.482976,13.13468819,.00013814,87.8982,315.3235,117.2437,242.8833,0,U,48060,999,25679,-.67383138E-3,-.233E-5,0
ONEWEB-0163,2021-025V,2026-07-11T19:18:52.857216,13.13468553,.00021968,87.8986,315.3230,99.3666,260.7712,0,U,48061,999,25691,.55429408E-3,.215E-5,0
ONEWEB-0159,2021-025W,2026-07-11T19:06:41.694624,13.13469311,.00022247,87.8987,315.3185,99.7860,260.3520,0,U,48062,999,25683,.77690442E-3,.296E-5,0
ONEWEB-0164,2021-025X,2026-07-11T18:39:52.471296,13.13469808,.00019135,87.8992,315.3295,103.4056,256.7286,0,U,48063,999,25681,.28657992E-3,.117E-5,0
ONEWEB-0167,2021-025Y,2026-07-11T19:20:06.501120,13.13469938,.00023005,87.8987,315.3283,115.2514,244.8854,0,U,48064,999,25680,.87786867E-3,.333E-5,0
ONEWEB-0166,2021-025Z,2026-07-11T19:53:00.392928,13.13469306,.00019935,87.8988,315.3004,97.4602,262.6754,0,U,48065,999,25688,-.10134935E-2,-.357E-5,0
ONEWEB-0151,2021-025AA,2026-07-11T19:55:25.844736,13.13470002,.00019348,87.8985,315.3150,103.5657,256.5687,0,U,48066,999,25682,-.84429275E-3,-.296E-5,0
ONEWEB-0170,2021-025AB,2026-07-11T20:07:37.047936,13.13469587,.00017565,87.8980,315.3152,115.3362,244.7949,0,U,48067,999,25678,-.68958577E-3,-.239E-5,0
ONEWEB-0168,2021-025AC,2026-07-11T19:45:41.075712,13.13469075,.00020371,87.8984,315.3192,99.2675,260.8684,0,U,48068,999,25679,-.66733494E-3,-.231E-5,0
ONEWEB-0173,2021-025AD,2026-07-11T19:33:30.166272,13.13468635,.0002315,87.8978,315.3214,100.9673,259.1717,0,U,48069,999,25703,-.39218156E-3,-.13E-5,0
ONEWEB-0171,2021-025AE,2026-07-11T20:27:07.780896,13.13470254,.00019645,87.8975,315.3210,101.2288,258.9062,0,U,48070,999,25685,.30453296E-3,.124E-5,0
ONEWEB-0172,2021-025AF,2026-07-11T19:57:52.304832,13.13470486,.00020618,87.8987,315.3169,102.7342,257.4018,0,U,48071,999,25774,-.91825023E-3,-.323E-5,0
ONEWEB-0174,2021-025AG,2026-07-11T19:31:04.194336,13.13468434,.00020033,87.8986,315.3195,94.7885,265.3472,0,U,48072,999,25706,-.26021134E-3,-.82E-6,0
ONEWEB-0175,2021-025AH,2026-07-11T20:14:56.426496,13.13469977,.00020447,87.8983,315.2986,108.7473,251.3878,0,U,48073,999,25672,-.43490806E-3,-.146E-5,0
ONEWEB-0177,2021-025AJ,2026-07-11T20:32:00.609504,13.13471064,.000206,87.8982,315.3141,95.3656,264.7708,0,U,48074,999,25691,.34338513E-3,.138E-5,0
ONEWEB-0178,2021-025AK,2026-07-11T19:09:20.100384,13.13470044,.00021597,87.8973,315.3354,103.7249,256.4121,0,U,48075,999,25695,.7118366E-3,.273E-5,0
ONEWEB-0108,2021-025AL,2026-07-11T20:00:18.794304,13.13469376,.00017346,87.8987,315.3109,95.5282,264.6045,0,U,48076,999,25688,-.85992166E-3,-.301E-5,0
ONEWEB-0169,2021-025AM,2026-07-11T20:46:38.382528,13.13469321,.00019941,87.8979,315.3104,94.2011,265.9346,0,U,48077,999,25554,.79934256E-3,.305E-5,0
ONEWEB-0176,2021-031A,2026-07-11T16:32:02.529888,13.14501965,.00021563,87.8967,284.8176,101.4223,258.7149,0,U,48210,999,25153,-.13104584E-3,-.36E-6,0
ONEWEB-0184,2021-031B,2026-07-11T19:32:26.378880,13.14502752,.00024656,87.8976,284.7946,118.4801,241.6577,0,U,48211,999,25152,-.31433674E-3,-.104E-5,0
ONEWEB-0179,2021-031C,2026-07-11T19:17:09.490848,14.25571598,.02213868,87.8996,281.0478,176.4996,183.7812,0,U,48212,999,25255,.55756524E-4,.191E-5,0
ONEWEB-0180,2021-031D,2026-07-11T17:47:24.187488,13.14503309,.00024969,87.8979,284.8057,99.5822,260.5590,0,U,48213,999,25144,-.36730414E-3,-.123E-5,0
ONEWEB-0218,2021-031E,2026-07-11T18:19:22.121472,13.14503442,.00028,87.8977,284.8011,112.5448,247.5978,0,U,48214,999,25160,-.17048365E-3,-.5E-6,0
ONEWEB-0209,2021-031F,2026-07-11T18:03:23.566176,13.14503466,.0002275,87.8968,284.8177,96.5306,263.6083,0,U,48215,999,25160,-.4988083E-3,-.172E-5,0
